STARLINK-30253          
1 57525U 23115E   26068.19272644  .00001136  00000+0  50811-4 0  9992
2 57525  42.9995   4.5394 0000834 276.6671  83.4085 15.27577538142273
STARLINK-30494          
1 57970U 23151G   26068.36049035 -.00001272  00000+0 -35691-4 0  9993
2 57970  43.0027 192.4566 0001155 241.5536 118.5200 15.28417441137406
